QIANFAN-25              
1 61558U 24185G   25283.16328865  .00000487  00000+0  28949-3 0  9997
2 61558  88.9751  85.3809 0010044 136.3737 223.8241 14.05816429 60577
QIANFAN-26              
1 61559U 24185H   25283.20208804  .00000299  00000+0  28684-3 0  9990
2 61559  88.9751  86.6057 0005280 184.1174 175.9950 13.77758496 59927
QIANFAN-27              
1 61560U 24185J   25283.16009201  .00000648  00000+0  25943-3 0  9990
2 61560  88.9750  84.3948 0009655 128.8775 231.3282 14.27209422 61096
QIANFAN-28              
1 61561U 24185K   25283.17173956  .00001030  00000+0  41086-3 0  9993
2 61561  88.9766  84.3917 0008758 128.2287 231.9697 14.27831755 61103
QIANFAN-29              
1 61562U 24185L   25283.19247574  .00000200  00000+0  29147-3 0  9996
2 61562  88.9728  87.8750 0008732 228.3754 131.6649 13.50978155 59211
QIANFAN-30              
1 61563U 24185M   25283.19336397  .00000210  00000+0  31170-3 0  9999
2 61563  88.9748  87.3758 0006603 207.5226 152.5576 13.49955767 59498
QIANFAN-31              
1 61564U 24185N   25283.16628957  .00000216  00000+0  28220-3 0  9991
2 61564  88.9734  87.2813 0006310 202.6649 157.4228 13.57928598 59539
QIANFAN-32              
1 61565U 24185P   25283.19698359  .00000205  00000+0  30096-3 0  9990
2 61565  88.9791  87.4904 0007769 240.5288 119.5089 13.50707344 59468
